STARLINK-2395
1 17814C 21018AD  21326.19026956  .00005213  00000-0  34940-3 0  3266
2 17814  53.0546  92.8901 0001370  82.4082 339.8717 15.06384358    15
